TEVEL2-5                
1 63214U 25052E   26068.96660006  .00021339  00000+0  71765-3 0  9991
2 63214  97.4013 325.3677 0004700  95.3936 264.7842 15.30817434 54919
STARLINK-35508          
1 65912U 25225C   26068.54616619  .00024218  00000+0  82749-3 0  9998
2 65912  53.1584 166.5253 0001090 112.1029 248.0088 15.30186433 24386
